INTELSAT 36 (IS-36) [PM]
1 41747C 16053A   22083.33064815  .00000029  00000-0  00000-0 0   838
2 41747   0.0265   9.4446 0001434 355.8796   3.9807  1.00271719    16
INTELSAT 36 (IS-36)     
1 41747C 16053A   22087.00000000  .00000066  00000-0  00000-0 0   877
2 41747   0.0001 133.1773 0001253 233.5531 247.1523  1.00269998    13
INTELSAT 33E            
1 41748C 16053B   22083.00000000  .00000141  00000-0  00000-0 0   834
2 41748   0.0374 348.0043 0001663  33.5953 219.8393  1.00270082    12
INTELSAT 33E            
1 41748C 16053B   22087.00000000 -.00000022  00000-0  00000-0 0   871
2 41748   0.0268 305.3702 0001599  84.5957 215.3977  1.00270538    15
INTELSAT 33E        [PM]
1 41748C 16053B   22087.35570602  .00000141  00000-0  00000-0 0   870
2 41748   0.0232 299.7303 0001523  90.6682 343.3713  1.00271202    18
INTELSAT 33E        [PM]
1 41748C 16053B   22089.11385417  .00000144  00000-0  00000-0 0   899
2 41748   0.0403 317.4829 0001423  73.3784 257.5755  1.00271935    14
INTELSAT 32E        [PM]
1 41945C 17007B   22082.84491898 -.00000179  00000-0  00000-0 0   824
2 41945   0.0150 107.5638 0000691 293.7725  40.9332  1.00274327    10
INTELSAT 32E            
1 41945C 17007B   22083.00000000 -.00000179  00000-0  00000-0 0   835
2 41945   0.0162 111.0997 0000581 324.8265  62.3305  1.00269863    11
INTELSAT 32E            
1 41945C 17007B   22087.00000000 -.00000204  00000-0  00000-0 0   872
2 41945   0.0044 155.3107 0000271 284.0469  62.8577  1.00269630    11
INTELSAT 32E        [PM]
1 41945C 17007B   22089.83827546 -.00000179  00000-0  00000-0 0   890
2 41945   0.0100 140.7724 0000275 215.8009  90.1916  1.00274166    14
INTELSAT 35E            
1 42818C 17041A   22083.00000000 -.00000148  00000-0  00000-0 0   839
2 42818   0.0121 194.1472 0001248 182.4160 130.3778  1.00272718    12
INTELSAT 35E            
1 42818C 17041A   22087.00000000 -.00000146  00000-0  00000-0 0   875
2 42818   0.0182 204.5113 0001204 177.7245 128.6542  1.00271291    14
INTELSAT 35E        [PM]
1 42818C 17041A   22087.34284722 -.00000148  00000-0  00000-0 0   879
2 42818   0.0181 203.7175 0001220 179.1602 251.7746  1.00271239    19
INTELSAT 37E            
1 42950C 17059A   22083.00000000 -.00000064  00000-0  00000-0 0   832
2 42950   0.0076 136.0056 0002360 245.1103 142.3160  1.00272235    13
INTELSAT 37E        [PM]
1 42950C 17059A   22086.34861111 -.00000051  00000-0  00000-0 0   869
2 42950   0.0034 174.1595 0002270 213.1860 264.8891  1.00271459    11
INTELSAT 37E            
1 42950C 17059A   22087.00000000 -.00000068  00000-0  00000-0 0   874
2 42950   0.0039 170.9994 0002253 215.5197 140.8580  1.00271339    18
INTELSAT 37E        [PM]
1 42950C 17059A   22087.87847222 -.00000052  00000-0  00000-0 0   877
2 42950   0.0045 168.6014 0002182 217.3252  98.5667  1.00271392    19
AZERSPACE 2 (IS-38)     
1 43632C 18074A   22083.00000000  .00000227  00000-0  00000-0 0   838
2 43632   0.0105 123.8321 0001493 260.2524 202.4649  1.00271525    15
AZERSPACE 2 (IS-38)     
1 43632C 18074A   22087.00000000  .00000213  00000-0  00000-0 0   871
2 43632   0.0034 163.8976 0001404 218.2876 208.3030  1.00269663    10
HORIZONS-3E             
1 43633C 18074B   22083.00000000  .00000029  00000-0  00000-0 0   839
2 43633   0.0175   4.7231 0000900  20.7147 325.0048  1.00269658    11
HORIZONS-3E             
1 43633C 18074B   22087.00000000  .00000063  00000-0  00000-0 0   875
2 43633   0.0161  68.6831 0000764 323.3907 322.3139  1.00268514    16
INTELSAT 39 (IS-39) [PM]
1 44476C 19049B   22082.26384259  .00000085  00000-0  00000-0 0   827
2 44476   0.0000 207.1902 0000859 289.6505 200.8029  1.00272278    16
INTELSAT 39 (IS-39)     
1 44476C 19049B   22083.00000000  .00000047  00000-0  00000-0 0   838
2 44476   0.0000 188.5410 0001063 316.7763  98.0671  1.00270837    17
INTELSAT 39 (IS-39)     
1 44476C 19049B   22087.00000000  .00000124  00000-0  00000-0 0   872
2 44476   0.0024 196.4242 0001063 317.4054  93.4966  1.00270110    15
INTELSAT 39 (IS-39) [PM]
1 44476C 19049B   22090.05679398  .00000118  00000-0  00000-0 0   900
2 44476   0.0050 210.2014 0000833 320.8043  99.7739  1.00271912    14
GALAXY 30 (G-30)        
1 46114C 20056C   22083.00000000  .00000121  00000-0  00000-0 0   832
2 46114   0.0007 211.9815 0001913 167.3171  37.1426  1.00270515    17
GALAXY 30 (G-30)        
1 46114C 20056C   22087.00000000  .00000128  00000-0  00000-0 0   877
2 46114   0.0044 159.8268 0001829 225.6798  34.8637  1.00270979    11
GALAXY 30 (G-30)    [PM]
1 46114C 20056C   22089.10902778  .00000114  00000-0  00000-0 0   890
2 46114   0.0077 219.9511 0001669 164.6234  77.1260  1.00271050    18
